STARLINK-32458          
1 61962U 24210D   26068.48005889  .00027456  00000+0  10037-2 0  9993
2 61962  42.9997 166.6667 0001136 256.8221 103.2504 15.27575869 75047
TEVEL2-9                
1 63237U 25052AD  26068.70229538  .00018694  00000+0  67240-3 0  9992
2 63237  97.4057 324.3929 0007990 124.2475 235.9522 15.28633834 54816
